{
  "type": "FeatureCollection",
  "features": [
    {
      "type": "Feature",
      "properties": {
        "norad_id": 35015,
        "name": "COSMOS 2251 DEB",
        "group": "cosmos-2251-debris",
        "lat": -22.438845124087305,
        "lon": 35.57553126032667,
        "alt_km": 774.024328736511,
        "timestamp": "2025-12-26T13:39:19.375833+00:00",
        "meta_object_name": "COSMOS 2251 DEB",
        "meta_object_id": "1993-036AGC",
        "meta_epoch": "2025-12-24T20:59:07.900800",
        "meta_mean_motion": 14.46938139,
        "meta_eccentricity": 0.0074531,
        "meta_inclination": 73.9465,
        "meta_ra_of_asc_node": 211.9291,
        "meta_arg_of_pericenter": 77.5315,
        "meta_mean_anomaly": 301.6184,
        "meta_ephemeris_type": 0,
        "meta_classification_type": "U",
        "meta_norad_cat_id": 35015,
        "meta_element_set_no": 999,
        "meta_rev_at_epoch": 65616,
        "meta_bstar": 0.00073268,
        "meta_mean_motion_dot": 2.728e-05,
        "meta_mean_motion_ddot": 0,
        "tle_line1": "1 35015U 93036AGC 25358.87439700  .00002728  00000+0  73268-3 0  9993",
        "tle_line2": "2 35015  73.9465 211.9291 0074531  77.5315 301.6184 14.46938139656168"
      },
      "geometry": {
        "type": "Point",
        "coordinates": [
          35.57553126032667,
          -22.438845124087305
        ]
      }
    },
    {
      "type": "Feature",
      "properties": {
        "norad_id": 35016,
        "name": "COSMOS 2251 DEB",
        "group": "cosmos-2251-debris",
        "lat": -4.041484959017699,
        "lon": -92.26057425925539,
        "alt_km": 858.8780774870565,
        "timestamp": "2025-12-26T13:39:19.375843+00:00",
        "meta_object_name": "COSMOS 2251 DEB",
        "meta_object_id": "1993-036AGD",
        "meta_epoch": "2025-12-21T05:33:15.838848",
        "meta_mean_motion": 14.35075882,
        "meta_eccentricity": 0.01140745,
        "meta_inclination": 73.9302,
        "meta_ra_of_asc_node": 278.7521,
        "meta_arg_of_pericenter": 193.9283,
        "meta_mean_anomaly": 317.5381,
        "meta_ephemeris_type": 0,
        "meta_classification_type": "U",
        "meta_norad_cat_id": 35016,
        "meta_element_set_no": 999,
        "meta_rev_at_epoch": 86904,
        "meta_bstar": 0.00026149228,
        "meta_mean_motion_dot": 7.75e-06,
        "meta_mean_motion_ddot": 0,
        "tle_line1": "1 35016U 93036AGD 25355.23143332  .00000775  00000+0  26149-3 0  9990",
        "tle_line2": "2 35016  73.9302 278.7521 0114074 193.9283 317.5381 14.35075882869043"
      },
      "geometry": {
        "type": "Point",
        "coordinates": [
          -92.26057425925539,
          -4.041484959017699
        ]
      }
    },
    {
      "type": "Feature",
      "properties": {
        "norad_id": 35018,
        "name": "COSMOS 2251 DEB",
        "group": "cosmos-2251-debris",
        "lat": -44.478986271506244,
        "lon": 70.8179763947215,
        "alt_km": 815.3265433586212,
        "timestamp": "2025-12-26T13:39:19.375854+00:00",
        "meta_object_name": "COSMOS 2251 DEB",
        "meta_object_id": "1993-036AGF",
        "meta_epoch": "2025-12-24T16:12:38.101536",
        "meta_mean_motion": 13.67138502,
        "meta_eccentricity": 0.03490652,
        "meta_inclination": 73.9764,
        "meta_ra_of_asc_node": 90.3261,
        "meta_arg_of_pericenter": 356.917,
        "meta_mean_anomaly": 2.9788,
        "meta_ephemeris_type": 0,
        "meta_classification_type": "U",
        "meta_norad_cat_id": 35018,
        "meta_element_set_no": 999,
        "meta_rev_at_epoch": 83349,
        "meta_bstar": 0.00085132295,
        "meta_mean_motion_dot": 1.064e-05,
        "meta_mean_motion_ddot": 0,
        "tle_line1": "1 35018U 93036AGF 25358.67544099  .00001064  00000+0  85132-3 0  9997",
        "tle_line2": "2 35018  73.9764  90.3261 0349065 356.9170   2.9788 13.67138502833491"
      },
      "geometry": {
        "type": "Point",
        "coordinates": [
          70.8179763947215,
          -44.478986271506244
        ]
      }
    },
    {
      "type": "Feature",
      "properties": {
        "norad_id": 35020,
        "name": "COSMOS 2251 DEB",
        "group": "cosmos-2251-debris",
        "lat": 30.4946799498961,
        "lon": -177.8471848466587,
        "alt_km": 702.1584413658193,
        "timestamp": "2025-12-26T13:39:19.375864+00:00",
        "meta_object_name": "COSMOS 2251 DEB",
        "meta_object_id": "1993-036AGH",
        "meta_epoch": "2025-12-25T19:27:19.630368",
        "meta_mean_motion": 14.62824887,
        "meta_eccentricity": 0.00913367,
        "meta_inclination": 74.0447,
        "meta_ra_of_asc_node": 173.9055,
        "meta_arg_of_pericenter": 284.996,
        "meta_mean_anomaly": 74.111,
        "meta_ephemeris_type": 0,
        "meta_classification_type": "U",
        "meta_norad_cat_id": 35020,
        "meta_element_set_no": 999,
        "meta_rev_at_epoch": 88429,
        "meta_bstar": 0.00015615367,
        "meta_mean_motion_dot": 8.12e-06,
        "meta_mean_motion_ddot": 0,
        "tle_line1": "1 35020U 93036AGH 25359.81064387  .00000812  00000+0  15615-3 0  9993",
        "tle_line2": "2 35020  74.0447 173.9055 0091336 284.9960  74.1110 14.62824887884293"
      },
      "geometry": {
        "type": "Point",
        "coordinates": [
          -177.8471848466587,
          30.4946799498961
        ]
      }
    },
    {
      "type": "Feature",
      "properties": {
        "norad_id": 35022,
        "name": "COSMOS 2251 DEB",
        "group": "cosmos-2251-debris",
        "lat": -14.357867349548686,
        "lon": -68.71707114704088,
        "alt_km": 721.744036406104,
        "timestamp": "2025-12-26T13:39:19.375875+00:00",
        "meta_object_name": "COSMOS 2251 DEB",
        "meta_object_id": "1993-036AGK",
        "meta_epoch": "2025-12-25T13:04:16.912416",
        "meta_mean_motion": 14.60885818,
        "meta_eccentricity": 0.0046189,
        "meta_inclination": 74.0261,
        "meta_ra_of_asc_node": 297.4455,
        "meta_arg_of_pericenter": 133.747,
        "meta_mean_anomaly": 226.7535,
        "meta_ephemeris_type": 0,
        "meta_classification_type": "U",
        "meta_norad_cat_id": 35022,
        "meta_element_set_no": 999,
        "meta_rev_at_epoch": 59330,
        "meta_bstar": 0.00049139,
        "meta_mean_motion_dot": 2.411e-05,
        "meta_mean_motion_ddot": 0,
        "tle_line1": "1 35022U 93036AGK 25359.54464019  .00002411  00000+0  49139-3 0  9996",
        "tle_line2": "2 35022  74.0261 297.4455 0046189 133.7470 226.7535 14.60885818593302"
      },
      "geometry": {
        "type": "Point",
        "coordinates": [
          -68.71707114704088,
          -14.357867349548686
        ]
      }
    },
    {
      "type": "Feature",
      "properties": {
        "norad_id": 35023,
        "name": "COSMOS 2251 DEB",
        "group": "cosmos-2251-debris",
        "lat": 67.09331383092221,
        "lon": -132.66939328908458,
        "alt_km": 597.0046646383616,
        "timestamp": "2025-12-26T13:39:19.375885+00:00",
        "meta_object_name": "COSMOS 2251 DEB",
        "meta_object_id": "1993-036AGL",
        "meta_epoch": "2025-12-25T17:01:33.868992",
        "meta_mean_motion": 14.95489352,
        "meta_eccentricity": 0.00335104,
        "meta_inclination": 74.0368,
        "meta_ra_of_asc_node": 186.4223,
        "meta_arg_of_pericenter": 262.485,
        "meta_mean_anomaly": 225.1411,
        "meta_ephemeris_type": 0,
        "meta_classification_type": "U",
        "meta_norad_cat_id": 35023,
        "meta_element_set_no": 999,
        "meta_rev_at_epoch": 88473,
        "meta_bstar": 0.0015881361,
        "meta_mean_motion_dot": 0.00017791,
        "meta_mean_motion_ddot": 0,
        "tle_line1": "1 35023U 93036AGL 25359.70941978  .00017791  00000+0  15881-2 0  9992",
        "tle_line2": "2 35023  74.0368 186.4223 0033510 262.4850 225.1411 14.95489352884734"
      },
      "geometry": {
        "type": "Point",
        "coordinates": [
          -132.66939328908458,
          67.09331383092221
        ]
      }
    },
    {
      "type": "Feature",
      "properties": {
        "norad_id": 35025,
        "name": "COSMOS 2251 DEB",
        "group": "cosmos-2251-debris",
        "lat": 67.14476040982154,
        "lon": 172.71120115338746,
        "alt_km": 702.1444177824851,
        "timestamp": "2025-12-26T13:39:19.375895+00:00",
        "meta_object_name": "COSMOS 2251 DEB",
        "meta_object_id": "1993-036AGN",
        "meta_epoch": "2025-12-25T12:43:05.392128",
        "meta_mean_motion": 14.7277334,
        "meta_eccentricity": 0.0085734,
        "meta_inclination": 73.9378,
        "meta_ra_of_asc_node": 37.8677,
        "meta_arg_of_pericenter": 308.0127,
        "meta_mean_anomaly": 51.3326,
        "meta_ephemeris_type": 0,
        "meta_classification_type": "U",
        "meta_norad_cat_id": 35025,
        "meta_element_set_no": 999,
        "meta_rev_at_epoch": 88831,
        "meta_bstar": 0.00045426,
        "meta_mean_motion_dot": 3.041e-05,
        "meta_mean_motion_ddot": 0,
        "tle_line1": "1 35025U 93036AGN 25359.52992352  .00003041  00000+0  45426-3 0  9998",
        "tle_line2": "2 35025  73.9378  37.8677 0085734 308.0127  51.3326 14.72773340888316"
      },
      "geometry": {
        "type": "Point",
        "coordinates": [
          172.71120115338746,
          67.14476040982154
        ]
      }
    }
  ]
}